{
    "week": 296,
    "satellites": [
        {
            "Name": "COSMOS 2433 (720)",
            "Line1": "1 32275U 07052A   24342.84455485 -.00000022  00000+0  00000+0 0  9994",
            "Line2": "2 32275  65.8658 334.5933 0005660 256.7774 103.1800  2.13103914133200",
            "SatelliteNumber": "32275",
            "Classification": "U",
            "LaunchYear": "07",
            "LaunchNumber": "052",
            "PieceOfLaunch": "A",
            "EpochYear": "24",
            "EpochDay": 342.84455485,
            "FirstDerivativeMeanMotion": -2.2e-07,
            "SecondDerivativeMeanMotion": "00000+0",
            "BSTAR": "00000+0",
            "SetNumber": "999",
            "Inclination": 65.8658,
            "RAAN": 334.5933,
            "Eccentricity": 0.000566,
            "ArgumentOfPerigee": 256.7774,
            "MeanAnomaly": 103.18,
            "MeanMotion": 2.13103914,
            "RevolutionNumber": "13320"
        },
        {
            "Name": "COSMOS 2432 (719)",
            "Line1": "1 32276U 07052B   24344.48944128 -.00000028  00000+0  00000+0 0  9990",
            "Line2": "2 32276  65.8804 334.6554 0011651 312.7418 174.7823  2.13103047133261",
            "SatelliteNumber": "32276",
            "Classification": "U",
            "LaunchYear": "07",
            "LaunchNumber": "052",
            "PieceOfLaunch": "B",
            "EpochYear": "24",
            "EpochDay": 344.48944128,
            "FirstDerivativeMeanMotion": -2.8e-07,
            "SecondDerivativeMeanMotion": "00000+0",
            "BSTAR": "00000+0",
            "SetNumber": "999",
            "Inclination": 65.8804,
            "RAAN": 334.6554,
            "Eccentricity": 0.0011651,
            "ArgumentOfPerigee": 312.7418,
            "MeanAnomaly": 174.7823,
            "MeanMotion": 2.13103047,
            "RevolutionNumber": "13326"
        },
        {
            "Name": "COSMOS 2434 (721)",
            "Line1": "1 32393U 07065A   24342.32613913  .00000064  00000+0  00000+0 0  9999",
            "Line2": "2 32393  64.3153 210.7145 0004369  71.4543 142.7679  2.13101257131902",
            "SatelliteNumber": "32393",
            "Classification": "U",
            "LaunchYear": "07",
            "LaunchNumber": "065",
            "PieceOfLaunch": "A",
            "EpochYear": "24",
            "EpochDay": 342.32613913,
            "FirstDerivativeMeanMotion": 6.4e-07,
            "SecondDerivativeMeanMotion": "00000+0",
            "BSTAR": "00000+0",
            "SetNumber": "999",
            "Inclination": 64.3153,
            "RAAN": 210.7145,
            "Eccentricity": 0.0004369,
            "ArgumentOfPerigee": 71.4543,
            "MeanAnomaly": 142.7679,
            "MeanMotion": 2.13101257,
            "RevolutionNumber": "13190"
        },
        {
            "Name": "COSMOS 2436 (723)",
            "Line1": "1 32395U 07065C   24344.43344559  .00000074  00000+0  00000+0 0  9993",
            "Line2": "2 32395  64.3240 210.7095 0017454   8.0135 157.5104  2.13099993131907",
            "SatelliteNumber": "32395",
            "Classification": "U",
            "LaunchYear": "07",
            "LaunchNumber": "065",
            "PieceOfLaunch": "C",
            "EpochYear": "24",
            "EpochDay": 344.43344559,
            "FirstDerivativeMeanMotion": 7.4e-07,
            "SecondDerivativeMeanMotion": "00000+0",
            "BSTAR": "00000+0",
            "SetNumber": "999",
            "Inclination": 64.324,
            "RAAN": 210.7095,
            "Eccentricity": 0.0017454,
            "ArgumentOfPerigee": 8.0135,
            "MeanAnomaly": 157.5104,
            "MeanMotion": 2.13099993,
            "RevolutionNumber": "13190"
        },
        {
            "Name": "COSMOS 2456 (730)",
            "Line1": "1 36111U 09070A   24345.15626369 -.00000007  00000+0  00000+0 0  9990",
            "Line2": "2 36111  64.6985  89.9214 0002749 297.0015  83.0683  2.13103480116661",
            "SatelliteNumber": "36111",
            "Classification": "U",
            "LaunchYear": "09",
            "LaunchNumber": "070",
            "PieceOfLaunch": "A",
            "EpochYear": "24",
            "EpochDay": 345.15626369,
            "FirstDerivativeMeanMotion": -7e-08,
            "SecondDerivativeMeanMotion": "00000+0",
            "BSTAR": "00000+0",
            "SetNumber": "999",
            "Inclination": 64.6985,
            "RAAN": 89.9214,
            "Eccentricity": 0.0002749,
            "ArgumentOfPerigee": 297.0015,
            "MeanAnomaly": 83.0683,
            "MeanMotion": 2.1310348,
            "RevolutionNumber": "11666"
        },
        {
            "Name": "COSMOS 2457 (733)",
            "Line1": "1 36112U 09070B   24344.95628681 -.00000004  00000+0  00000+0 0  9994",
            "Line2": "2 36112  64.6834  89.7832 0005315 159.4707 199.6991  2.13100928116659",
            "SatelliteNumber": "36112",
            "Classification": "U",
            "LaunchYear": "09",
            "LaunchNumber": "070",
            "PieceOfLaunch": "B",
            "EpochYear": "24",
            "EpochDay": 344.95628681,
            "FirstDerivativeMeanMotion": -4e-08,
            "SecondDerivativeMeanMotion": "00000+0",
            "BSTAR": "00000+0",
            "SetNumber": "999",
            "Inclination": 64.6834,
            "RAAN": 89.7832,
            "Eccentricity": 0.0005315,
            "ArgumentOfPerigee": 159.4707,
            "MeanAnomaly": 199.6991,
            "MeanMotion": 2.13100928,
            "RevolutionNumber": "11665"
        },
        {
            "Name": "COSMOS 2460 (732)",
            "Line1": "1 36402U 10007C   24345.09260501 -.00000032  00000+0  00000+0 0  9998",
            "Line2": "2 36402  65.7178 333.1528 0002950 277.2857 180.6582  2.13106069115016",
            "SatelliteNumber": "36402",
            "Classification": "U",
            "LaunchYear": "10",
            "LaunchNumber": "007",
            "PieceOfLaunch": "C",
            "EpochYear": "24",
            "EpochDay": 345.09260501,
            "FirstDerivativeMeanMotion": -3.2e-07,
            "SecondDerivativeMeanMotion": "00000+0",
            "BSTAR": "00000+0",
            "SetNumber": "999",
            "Inclination": 65.7178,
            "RAAN": 333.1528,
            "Eccentricity": 0.000295,
            "ArgumentOfPerigee": 277.2857,
            "MeanAnomaly": 180.6582,
            "MeanMotion": 2.13106069,
            "RevolutionNumber": "11501"
        },
        {
            "Name": "COSMOS 2476 (744)",
            "Line1": "1 37867U 11064A   24343.99650573  .00000012  00000+0  00000+0 0  9994",
            "Line2": "2 37867  64.9679  91.6610 0023406 233.1019 248.6555  2.13101414101937",
            "SatelliteNumber": "37867",
            "Classification": "U",
            "LaunchYear": "11",
            "LaunchNumber": "064",
            "PieceOfLaunch": "A",
            "EpochYear": "24",
            "EpochDay": 343.99650573,
            "FirstDerivativeMeanMotion": 1.2e-07,
            "SecondDerivativeMeanMotion": "00000+0",
            "BSTAR": "00000+0",
            "SetNumber": "999",
            "Inclination": 64.9679,
            "RAAN": 91.661,
            "Eccentricity": 0.0023406,
            "ArgumentOfPerigee": 233.1019,
            "MeanAnomaly": 248.6555,
            "MeanMotion": 2.13101414,
            "RevolutionNumber": "10193"
        },
        {
            "Name": "COSMOS 2477 (745)",
            "Line1": "1 37868U 11064B   24344.66069723  .00000004  00000+0  00000+0 0  9992",
            "Line2": "2 37868  64.9751  91.7126 0020558 233.6518 216.6494  2.13102812101947",
            "SatelliteNumber": "37868",
            "Classification": "U",
            "LaunchYear": "11",
            "LaunchNumber": "064",
            "PieceOfLaunch": "B",
            "EpochYear": "24",
            "EpochDay": 344.66069723,
            "FirstDerivativeMeanMotion": 4e-08,
            "SecondDerivativeMeanMotion": "00000+0",
            "BSTAR": "00000+0",
            "SetNumber": "999",
            "Inclination": 64.9751,
            "RAAN": 91.7126,
            "Eccentricity": 0.0020558,
            "ArgumentOfPerigee": 233.6518,
            "MeanAnomaly": 216.6494,
            "MeanMotion": 2.13102812,
            "RevolutionNumber": "10194"
        },
        {
            "Name": "COSMOS 2475 (743)",
            "Line1": "1 37869U 11064C   24344.56552368  .00000005  00000+0  00000+0 0  9995",
            "Line2": "2 37869  64.9819  91.7323 0025182 249.0253  85.8778  2.13101470101947",
            "SatelliteNumber": "37869",
            "Classification": "U",
            "LaunchYear": "11",
            "LaunchNumber": "064",
            "PieceOfLaunch": "C",
            "EpochYear": "24",
            "EpochDay": 344.56552368,
            "FirstDerivativeMeanMotion": 5e-08,
            "SecondDerivativeMeanMotion": "00000+0",
            "BSTAR": "00000+0",
            "SetNumber": "999",
            "Inclination": 64.9819,
            "RAAN": 91.7323,
            "Eccentricity": 0.0025182,
            "ArgumentOfPerigee": 249.0253,
            "MeanAnomaly": 85.8778,
            "MeanMotion": 2.1310147,
            "RevolutionNumber": "10194"
        }
    ]
}